[{"OBJECT_NAME":"1998-067XK","OBJECT_ID":"1998-067XK","EPOCH":"2025-10-07T23:33:22.337856","MEAN_MOTION":15.53976405,"ECCENTRICITY":0.00011541,"INCLINATION":51.6312,"RA_OF_ASC_NODE":107.6777,"ARG_OF_PERICENTER":281.4095,"MEAN_ANOMALY":78.6766,"EPHEMERIS_TYPE":0,"CLASSIFICATION_TYPE":"U","NORAD_CAT_ID":65731,"ELEMENT_SET_NO":999,"REV_AT_EPOCH":288,"BSTAR":0.001129158,"MEAN_MOTION_DOT":0.00074555,"MEAN_MOTION_DDOT":0},{"OBJECT_NAME":"RSP-03","OBJECT_ID":"1998-067XL","EPOCH":"2025-10-08T21:06:52.547040","MEAN_MOTION":15.54469458,"ECCENTRICITY":0.00014484,"INCLINATION":51.6306,"RA_OF_ASC_NODE":103.1753,"ARG_OF_PERICENTER":285.7299,"MEAN_ANOMALY":74.3532,"EPHEMERIS_TYPE":0,"CLASSIFICATION_TYPE":"U","NORAD_CAT_ID":65732,"ELEMENT_SET_NO":999,"REV_AT_EPOCH":303,"BSTAR":0.0011449678,"MEAN_MOTION_DOT":0.00077009,"MEAN_MOTION_DDOT":0},{"OBJECT_NAME":"1998-067XM","OBJECT_ID":"1998-067XM","EPOCH":"2025-10-08T21:01:46.693632","MEAN_MOTION":15.55071186,"ECCENTRICITY":0.00018471,"INCLINATION":51.631,"RA_OF_ASC_NODE":103.1523,"ARG_OF_PERICENTER":118.5975,"MEAN_ANOMALY":241.5202,"EPHEMERIS_TYPE":0,"CLASSIFICATION_TYPE":"U","NORAD_CAT_ID":65733,"ELEMENT_SET_NO":999,"REV_AT_EPOCH":303,"BSTAR":0.0013513844,"MEAN_MOTION_DOT":0.00093208,"MEAN_MOTION_DDOT":0}]
