1998-067XK              
1 65731U 98067XK  25280.98150854  .00074555  00000+0  11292-2 0  9991
2 65731  51.6312 107.6777 0001154 281.4095  78.6766 15.53976405  2880
RSP-03                  
1 65732U 98067XL  25281.87977485  .00077009  00000+0  11450-2 0  9991
2 65732  51.6306 103.1753 0001448 285.7299  74.3532 15.54469458  3036
1998-067XM              
1 65733U 98067XM  25281.87623488  .00093208  00000+0  13514-2 0  9995
2 65733  51.6310 103.1523 0001847 118.5975 241.5202 15.55071186  3034
